{
  "norad_id": 59416,
  "name": "STARLINK-31399",
  "history": [
    {
      "epoch": "2026-03-28T21:16:27.411168Z",
      "apogee_km": 484.23887248260326,
      "perigee_km": 481.86339192747073,
      "latitude_deg": -1.929604716255084e-05,
      "longitude_deg": 162.16982663335432,
      "height_km": 482.83174614664705,
      "semi_major_axis_km": 6861.188132205037,
      "eccentricity": 0.00017311,
      "inclination_deg": 43.0034,
      "raan_deg": 307.5845,
      "arg_perigee_deg": 269.8425,
      "mean_anomaly_deg": 90.2228,
      "mean_motion_rev_day": 15.2757932
    },
    {
      "epoch": "2026-03-29T22:22:57.218880Z",
      "apogee_km": 484.1103341171083,
      "perigee_km": 481.9010461708822,
      "latitude_deg": -1.0550551614525467e-05,
      "longitude_deg": 138.60647717250959,
      "height_km": 482.7887837613107,
      "semi_major_axis_km": 6861.1426901439945,
      "eccentricity": 0.000161,
      "inclination_deg": 43.0026,
      "raan_deg": 301.6765,
      "arg_perigee_deg": 269.6923,
      "mean_anomaly_deg": 90.3744,
      "mean_motion_rev_day": 15.27594496
    }
  ]
}